[{"OBJECT_NAME":"STARLINK-2428","OBJECT_ID":"2021-027H","EPOCH":"2025-12-18T05:15:58.081536","MEAN_MOTION":15.06405182,"ECCENTRICITY":0.00013979,"INCLINATION":53.053,"RA_OF_ASC_NODE":177.3507,"ARG_OF_PERICENTER":89.929,"MEAN_ANOMALY":270.1859,"EPHEMERIS_TYPE":0,"CLASSIFICATION_TYPE":"U","NORAD_CAT_ID":48099,"ELEMENT_SET_NO":999,"REV_AT_EPOCH":26013,"BSTAR":-7.2952266e-5,"MEAN_MOTION_DOT":-1.368e-5,"MEAN_MOTION_DDOT":0},{"OBJECT_NAME":"STARLINK-2430","OBJECT_ID":"2021-027J","EPOCH":"2025-12-17T18:47:00.121920","MEAN_MOTION":15.06402059,"ECCENTRICITY":0.00014187,"INCLINATION":53.0551,"RA_OF_ASC_NODE":159.3115,"ARG_OF_PERICENTER":91.3024,"MEAN_ANOMALY":268.8128,"EPHEMERIS_TYPE":0,"CLASSIFICATION_TYPE":"U","NORAD_CAT_ID":48100,"ELEMENT_SET_NO":999,"REV_AT_EPOCH":26035,"BSTAR":-4.419214e-5,"MEAN_MOTION_DOT":-9.4e-6,"MEAN_MOTION_DDOT":0},{"OBJECT_NAME":"STARLINK-2436","OBJECT_ID":"2021-027K","EPOCH":"2025-12-18T04:24:15.483456","MEAN_MOTION":15.06402631,"ECCENTRICITY":0.00014514,"INCLINATION":53.0538,"RA_OF_ASC_NODE":167.7189,"ARG_OF_PERICENTER":101.2672,"MEAN_ANOMALY":258.848,"EPHEMERIS_TYPE":0,"CLASSIFICATION_TYPE":"U","NORAD_CAT_ID":48101,"ELEMENT_SET_NO":999,"REV_AT_EPOCH":26027,"BSTAR":9.1848932e-5,"MEAN_MOTION_DOT":1.087e-5,"MEAN_MOTION_DDOT":0},{"OBJECT_NAME":"STARLINK-2439","OBJECT_ID":"2021-027N","EPOCH":"2025-12-17T21:28:13.767456","MEAN_MOTION":15.0640164,"ECCENTRICITY":0.0001423,"INCLINATION":53.055,"RA_OF_ASC_NODE":163.8063,"ARG_OF_PERICENTER":92.5252,"MEAN_ANOMALY":267.59,"EPHEMERIS_TYPE":0,"CLASSIFICATION_TYPE":"U","NORAD_CAT_ID":48104,"ELEMENT_SET_NO":999,"REV_AT_EPOCH":26030,"BSTAR":8.9151027e-5,"MEAN_MOTION_DOT":1.047e-5,"MEAN_MOTION_DDOT":0},{"OBJECT_NAME":"STARLINK-2440","OBJECT_ID":"2021-027P","EPOCH":"2025-12-17T14:28:14.089440","MEAN_MOTION":15.06414606,"ECCENTRICITY":0.00013236,"INCLINATION":53.0566,"RA_OF_ASC_NODE":110.1183,"ARG_OF_PERICENTER":86.8935,"MEAN_ANOMALY":273.2206,"EPHEMERIS_TYPE":0,"CLASSIFICATION_TYPE":"U","NORAD_CAT_ID":48105,"ELEMENT_SET_NO":999,"REV_AT_EPOCH":26102,"BSTAR":-0.0002564173,"MEAN_MOTION_DOT":-4.1e-5,"MEAN_MOTION_DDOT":0},{"OBJECT_NAME":"STARLINK-2442","OBJECT_ID":"2021-027Q","EPOCH":"2025-12-18T04:25:33.102624","MEAN_MOTION":15.06398505,"ECCENTRICITY":0.00012673,"INCLINATION":53.0538,"RA_OF_ASC_NODE":157.5198,"ARG_OF_PERICENTER":87.0568,"MEAN_ANOMALY":273.0566,"EPHEMERIS_TYPE":0,"CLASSIFICATION_TYPE":"U","NORAD_CAT_ID":48106,"ELEMENT_SET_NO":999,"REV_AT_EPOCH":26041,"BSTAR":5.8644404e-5,"MEAN_MOTION_DOT":5.92e-6,"MEAN_MOTION_DDOT":0},{"OBJECT_NAME":"STARLINK-2443","OBJECT_ID":"2021-027R","EPOCH":"2025-12-17T17:37:59.923776","MEAN_MOTION":15.06402909,"ECCENTRICITY":0.00014029,"INCLINATION":53.0546,"RA_OF_ASC_NODE":159.5291,"ARG_OF_PERICENTER":91.3279,"MEAN_ANOMALY":268.7871,"EPHEMERIS_TYPE":0,"CLASSIFICATION_TYPE":"U","NORAD_CAT_ID":48107,"ELEMENT_SET_NO":999,"REV_AT_EPOCH":26034,"BSTAR":9.1765105e-5,"MEAN_MOTION_DOT":1.086e-5,"MEAN_MOTION_DDOT":0},{"OBJECT_NAME":"STARLINK-2448","OBJECT_ID":"2021-027V","EPOCH":"2025-12-18T05:17:17.611872","MEAN_MOTION":15.06399515,"ECCENTRICITY":0.00013596,"INCLINATION":53.0531,"RA_OF_ASC_NODE":167.3183,"ARG_OF_PERICENTER":83.8644,"MEAN_ANOMALY":276.25,"EPHEMERIS_TYPE":0,"CLASSIFICATION_TYPE":"U","NORAD_CAT_ID":48111,"ELEMENT_SET_NO":999,"REV_AT_EPOCH":26028,"BSTAR":4.7180349e-5,"MEAN_MOTION_DOT":4.21e-6,"MEAN_MOTION_DDOT":0},{"OBJECT_NAME":"STARLINK-2449","OBJECT_ID":"2021-027W","EPOCH":"2025-12-17T19:34:08.489856","MEAN_MOTION":15.0640724,"ECCENTRICITY":0.00013659,"INCLINATION":53.0534,"RA_OF_ASC_NODE":184.3289,"ARG_OF_PERICENTER":95.6211,"MEAN_ANOMALY":264.4934,"EPHEMERIS_TYPE":0,"CLASSIFICATION_TYPE":"U","NORAD_CAT_ID":48112,"ELEMENT_SET_NO":999,"REV_AT_EPOCH":26000,"BSTAR":0.00013498118,"MEAN_MOTION_DOT":1.73e-5,"MEAN_MOTION_DDOT":0},{"OBJECT_NAME":"STARLINK-2450","OBJECT_ID":"2021-027X","EPOCH":"2025-12-18T05:10:39.808992","MEAN_MOTION":15.06403933,"ECCENTRICITY":0.00014869,"INCLINATION":53.0534,"RA_OF_ASC_NODE":177.3641,"ARG_OF_PERICENTER":91.0217,"MEAN_ANOMALY":269.0942,"EPHEMERIS_TYPE":0,"CLASSIFICATION_TYPE":"U","NORAD_CAT_ID":48113,"ELEMENT_SET_NO":999,"REV_AT_EPOCH":26012,"BSTAR":3.3003485e-5,"MEAN_MOTION_DOT":2.1e-6,"MEAN_MOTION_DDOT":0},{"OBJECT_NAME":"STARLINK-2452","OBJECT_ID":"2021-027Z","EPOCH":"2025-12-17T19:22:52.530816","MEAN_MOTION":15.06372226,"ECCENTRICITY":0.00014812,"INCLINATION":53.0534,"RA_OF_ASC_NODE":169.2077,"ARG_OF_PERICENTER":111.833,"MEAN_ANOMALY":248.2817,"EPHEMERIS_TYPE":0,"CLASSIFICATION_TYPE":"U","NORAD_CAT_ID":48115,"ELEMENT_SET_NO":999,"REV_AT_EPOCH":26021,"BSTAR":-0.00016234732,"MEAN_MOTION_DOT":-2.697e-5,"MEAN_MOTION_DDOT":0},{"OBJECT_NAME":"STARLINK-2454","OBJECT_ID":"2021-027AA","EPOCH":"2025-12-18T05:05:21.604704","MEAN_MOTION":15.06405701,"ECCENTRICITY":0.00014638,"INCLINATION":53.054,"RA_OF_ASC_NODE":177.385,"ARG_OF_PERICENTER":85.188,"MEAN_ANOMALY":274.9276,"EPHEMERIS_TYPE":0,"CLASSIFICATION_TYPE":"U","NORAD_CAT_ID":48116,"ELEMENT_SET_NO":999,"REV_AT_EPOCH":26013,"BSTAR":0.00011248697,"MEAN_MOTION_DOT":1.395e-5,"MEAN_MOTION_DDOT":0},{"OBJECT_NAME":"STARLINK-2455","OBJECT_ID":"2021-027AB","EPOCH":"2025-12-18T04:24:11.061504","MEAN_MOTION":15.06403241,"ECCENTRICITY":0.00013762,"INCLINATION":53.0541,"RA_OF_ASC_NODE":157.5017,"ARG_OF_PERICENTER":88.0595,"MEAN_ANOMALY":272.0552,"EPHEMERIS_TYPE":0,"CLASSIFICATION_TYPE":"U","NORAD_CAT_ID":48117,"ELEMENT_SET_NO":999,"REV_AT_EPOCH":26041,"BSTAR":4.4107801e-5,"MEAN_MOTION_DOT":3.76e-6,"MEAN_MOTION_DDOT":0},{"OBJECT_NAME":"STARLINK-2459","OBJECT_ID":"2021-027AD","EPOCH":"2025-12-18T04:34:48.196704","MEAN_MOTION":15.06401441,"ECCENTRICITY":0.00012936,"INCLINATION":53.0544,"RA_OF_ASC_NODE":157.4703,"ARG_OF_PERICENTER":91.2138,"MEAN_ANOMALY":268.8999,"EPHEMERIS_TYPE":0,"CLASSIFICATION_TYPE":"U","NORAD_CAT_ID":48119,"ELEMENT_SET_NO":999,"REV_AT_EPOCH":26040,"BSTAR":0.0001001124,"MEAN_MOTION_DOT":1.21e-5,"MEAN_MOTION_DDOT":0},{"OBJECT_NAME":"STARLINK-2460","OBJECT_ID":"2021-027AE","EPOCH":"2025-12-17T19:10:54.603840","MEAN_MOTION":15.063947,"ECCENTRICITY":0.00013841,"INCLINATION":53.0535,"RA_OF_ASC_NODE":179.2386,"ARG_OF_PERICENTER":91.6807,"MEAN_ANOMALY":268.434,"EPHEMERIS_TYPE":0,"CLASSIFICATION_TYPE":"U","NORAD_CAT_ID":48120,"ELEMENT_SET_NO":999,"REV_AT_EPOCH":26008,"BSTAR":0.00012308068,"MEAN_MOTION_DOT":1.552e-5,"MEAN_MOTION_DDOT":0},{"OBJECT_NAME":"STARLINK-2462","OBJECT_ID":"2021-027AF","EPOCH":"2025-12-18T05:38:33.041760","MEAN_MOTION":15.06402494,"ECCENTRICITY":0.00012764,"INCLINATION":53.0544,"RA_OF_ASC_NODE":167.2792,"ARG_OF_PERICENTER":78.7895,"MEAN_ANOMALY":281.3238,"EPHEMERIS_TYPE":0,"CLASSIFICATION_TYPE":"U","NORAD_CAT_ID":48121,"ELEMENT_SET_NO":999,"REV_AT_EPOCH":26027,"BSTAR":0.00015643818,"MEAN_MOTION_DOT":2.05e-5,"MEAN_MOTION_DDOT":0}]
