STARLINK-2428           
1 48099U 21027H   25352.21942224 -.00001368  00000+0 -72952-4 0  9993
2 48099  53.0530 177.3507 0001397  89.9290 270.1859 15.06405182260131
STARLINK-2430           
1 48100U 21027J   25351.78264030 -.00000940  00000+0 -44192-4 0  9999
2 48100  53.0551 159.3115 0001418  91.3024 268.8128 15.06402059260355
STARLINK-2436           
1 48101U 21027K   25352.18351254  .00001087  00000+0  91849-4 0  9992
2 48101  53.0538 167.7189 0001451 101.2672 258.8480 15.06402631260279
STARLINK-2439           
1 48104U 21027N   25351.89460379  .00001047  00000+0  89151-4 0  9990
2 48104  53.0550 163.8063 0001423  92.5252 267.5900 15.06401640260306
STARLINK-2440           
1 48105U 21027P   25351.60294085 -.00004100  00000+0 -25642-3 0  9998
2 48105  53.0566 110.1183 0001323  86.8935 273.2206 15.06414606261024
STARLINK-2442           
1 48106U 21027Q   25352.18441091  .00000592  00000+0  58644-4 0  9992
2 48106  53.0538 157.5198 0001267  87.0568 273.0566 15.06398505260415
STARLINK-2443           
1 48107U 21027R   25351.73472134  .00001086  00000+0  91765-4 0  9995
2 48107  53.0546 159.5291 0001402  91.3279 268.7871 15.06402909260345
STARLINK-2448           
1 48111U 21027V   25352.22034273  .00000421  00000+0  47180-4 0  9997
2 48111  53.0531 167.3183 0001359  83.8644 276.2500 15.06399515260288
STARLINK-2449           
1 48112U 21027W   25351.81537604  .00001730  00000+0  13498-3 0  9996
2 48112  53.0534 184.3289 0001365  95.6211 264.4934 15.06407240260001
STARLINK-2450           
1 48113U 21027X   25352.21573853  .00000210  00000+0  33003-4 0  9995
2 48113  53.0534 177.3641 0001486  91.0217 269.0942 15.06403933260124
STARLINK-2452           
1 48115U 21027Z   25351.80755244 -.00002697  00000+0 -16235-3 0  9997
2 48115  53.0534 169.2077 0001481 111.8330 248.2817 15.06372226260211
STARLINK-2454           
1 48116U 21027AA  25352.21205561  .00001395  00000+0  11249-3 0  9998
2 48116  53.0540 177.3850 0001463  85.1880 274.9276 15.06405701260132
STARLINK-2455           
1 48117U 21027AB  25352.18346136  .00000376  00000+0  44108-4 0  9998
2 48117  53.0541 157.5017 0001376  88.0595 272.0552 15.06403241260411
STARLINK-2459           
1 48119U 21027AD  25352.19083561  .00001210  00000+0  10011-3 0  9994
2 48119  53.0544 157.4703 0001293  91.2138 268.8999 15.06401441260401
STARLINK-2460           
1 48120U 21027AE  25351.79924310  .00001552  00000+0  12308-3 0  9997
2 48120  53.0535 179.2386 0001384  91.6807 268.4340 15.06394700260089
STARLINK-2462           
1 48121U 21027AF  25352.23510465  .00002050  00000+0  15644-3 0  9990
2 48121  53.0544 167.2792 0001276  78.7895 281.3238 15.06402494260272
